CCSDS_OMM_VERS = 2.0
CREATION_DATE  = 
ORIGINATOR     = 

OBJECT_NAME    = STARLINK-36650
OBJECT_ID      = 2026-033R
CENTER_NAME    = EARTH
REF_FRAME      = TEME
TIME_SYSTEM    = UTC
MEAN_ELEMENT_THEORY = SGP/SGP4

EPOCH          = 2026-03-01T17:29:48.605856
MEAN_MOTION    = 15.82019973
ECCENTRICITY   = .000182
INCLINATION    = 42.9977
RA_OF_ASC_NODE = 320.1616
ARG_OF_PERICENTER = 279.1542
MEAN_ANOMALY   = 80.9123

EPHEMERIS_TYPE = 0
CLASSIFICATION_TYPE = U
NORAD_CAT_ID   = 67836
ELEMENT_SET_NO = 999
REV_AT_EPOCH   = 336
BSTAR          = .11129E-2
MEAN_MOTION_DOT = .240472E-2
MEAN_MOTION_DDOT = 0

CCSDS_OMM_VERS = 2.0
CREATION_DATE  = 
ORIGINATOR     = 

OBJECT_NAME    = STARLINK-36649
OBJECT_ID      = 2026-033S
CENTER_NAME    = EARTH
REF_FRAME      = TEME
TIME_SYSTEM    = UTC
MEAN_ELEMENT_THEORY = SGP/SGP4

EPOCH          = 2026-03-01T17:28:43.805856
MEAN_MOTION    = 15.82089043
ECCENTRICITY   = .0001909
INCLINATION    = 42.9975
RA_OF_ASC_NODE = 320.1564
ARG_OF_PERICENTER = 263.1380
MEAN_ANOMALY   = 96.9274

EPHEMERIS_TYPE = 0
CLASSIFICATION_TYPE = U
NORAD_CAT_ID   = 67837
ELEMENT_SET_NO = 999
REV_AT_EPOCH   = 336
BSTAR          = .18608E-2
MEAN_MOTION_DOT = .411925E-2
MEAN_MOTION_DDOT = 0

CCSDS_OMM_VERS = 2.0
CREATION_DATE  = 
ORIGINATOR     = 

OBJECT_NAME    = STARLINK-36654
OBJECT_ID      = 2026-033T
CENTER_NAME    = EARTH
REF_FRAME      = TEME
TIME_SYSTEM    = UTC
MEAN_ELEMENT_THEORY = SGP/SGP4

EPOCH          = 2026-03-01T17:27:39.050784
MEAN_MOTION    = 15.82049944
ECCENTRICITY   = .0001894
INCLINATION    = 42.9975
RA_OF_ASC_NODE = 320.1498
ARG_OF_PERICENTER = 270.3787
MEAN_ANOMALY   = 89.6868

EPHEMERIS_TYPE = 0
CLASSIFICATION_TYPE = U
NORAD_CAT_ID   = 67838
ELEMENT_SET_NO = 999
REV_AT_EPOCH   = 336
BSTAR          = .17462E-2
MEAN_MOTION_DOT = .384587E-2
MEAN_MOTION_DDOT = 0

CCSDS_OMM_VERS = 2.0
CREATION_DATE  = 
ORIGINATOR     = 

OBJECT_NAME    = STARLINK-36652
OBJECT_ID      = 2026-033U
CENTER_NAME    = EARTH
REF_FRAME      = TEME
TIME_SYSTEM    = UTC
MEAN_ELEMENT_THEORY = SGP/SGP4

EPOCH          = 2026-03-01T20:28:23.311776
MEAN_MOTION    = 15.82149407
ECCENTRICITY   = .0001961
INCLINATION    = 42.9981
RA_OF_ASC_NODE = 319.3700
ARG_OF_PERICENTER = 255.1152
MEAN_ANOMALY   = 104.9502

EPHEMERIS_TYPE = 0
CLASSIFICATION_TYPE = U
NORAD_CAT_ID   = 67839
ELEMENT_SET_NO = 999
REV_AT_EPOCH   = 338
BSTAR          = .14265E-2
MEAN_MOTION_DOT = .312896E-2
MEAN_MOTION_DDOT = 0

CCSDS_OMM_VERS = 2.0
CREATION_DATE  = 
ORIGINATOR     = 

OBJECT_NAME    = STARLINK-36651
OBJECT_ID      = 2026-033V
CENTER_NAME    = EARTH
REF_FRAME      = TEME
TIME_SYSTEM    = UTC
MEAN_ELEMENT_THEORY = SGP/SGP4

EPOCH          = 2026-03-01T20:27:18.257760
MEAN_MOTION    = 15.82211103
ECCENTRICITY   = .000256
INCLINATION    = 42.9982
RA_OF_ASC_NODE = 319.3626
ARG_OF_PERICENTER = 235.8952
MEAN_ANOMALY   = 124.1677

EPHEMERIS_TYPE = 0
CLASSIFICATION_TYPE = U
NORAD_CAT_ID   = 67840
ELEMENT_SET_NO = 999
REV_AT_EPOCH   = 338
BSTAR          = .19725E-2
MEAN_MOTION_DOT = .440661E-2
MEAN_MOTION_DDOT = 0

CCSDS_OMM_VERS = 2.0
CREATION_DATE  = 
ORIGINATOR     = 

OBJECT_NAME    = STARLINK-36656
OBJECT_ID      = 2026-033W
CENTER_NAME    = EARTH
REF_FRAME      = TEME
TIME_SYSTEM    = UTC
MEAN_ELEMENT_THEORY = SGP/SGP4

EPOCH          = 2026-03-01T20:26:14.038368
MEAN_MOTION    = 15.82170331
ECCENTRICITY   = .0002265
INCLINATION    = 42.9980
RA_OF_ASC_NODE = 319.3574
ARG_OF_PERICENTER = 293.4139
MEAN_ANOMALY   = 66.6495

EPHEMERIS_TYPE = 0
CLASSIFICATION_TYPE = U
NORAD_CAT_ID   = 67841
ELEMENT_SET_NO = 999
REV_AT_EPOCH   = 338
BSTAR          = .18102E-2
MEAN_MOTION_DOT = .401736E-2
MEAN_MOTION_DDOT = 0

CCSDS_OMM_VERS = 2.0
CREATION_DATE  = 
ORIGINATOR     = 

OBJECT_NAME    = STARLINK-36653
OBJECT_ID      = 2026-033X
CENTER_NAME    = EARTH
REF_FRAME      = TEME
TIME_SYSTEM    = UTC
MEAN_ELEMENT_THEORY = SGP/SGP4

EPOCH          = 2026-03-01T17:23:20.209344
MEAN_MOTION    = 15.82050821
ECCENTRICITY   = .0001812
INCLINATION    = 42.9980
RA_OF_ASC_NODE = 320.1254
ARG_OF_PERICENTER = 283.1362
MEAN_ANOMALY   = 76.9307

EPHEMERIS_TYPE = 0
CLASSIFICATION_TYPE = U
NORAD_CAT_ID   = 67842
ELEMENT_SET_NO = 999
REV_AT_EPOCH   = 336
BSTAR          = .12605E-2
MEAN_MOTION_DOT = .273894E-2
MEAN_MOTION_DDOT = 0

CCSDS_OMM_VERS = 2.0
CREATION_DATE  = 
ORIGINATOR     = 

OBJECT_NAME    = STARLINK-36589
OBJECT_ID      = 2026-033Y
CENTER_NAME    = EARTH
REF_FRAME      = TEME
TIME_SYSTEM    = UTC
MEAN_ELEMENT_THEORY = SGP/SGP4

EPOCH          = 2026-03-01T20:24:04.904064
MEAN_MOTION    = 15.82073628
ECCENTRICITY   = .0003315
INCLINATION    = 42.9978
RA_OF_ASC_NODE = 319.3466
ARG_OF_PERICENTER = 300.8786
MEAN_ANOMALY   = 59.1759

EPHEMERIS_TYPE = 0
CLASSIFICATION_TYPE = U
NORAD_CAT_ID   = 67843
ELEMENT_SET_NO = 999
REV_AT_EPOCH   = 338
BSTAR          = .19548E-2
MEAN_MOTION_DOT = .433554E-2
MEAN_MOTION_DDOT = 0

CCSDS_OMM_VERS = 2.0
CREATION_DATE  = 
ORIGINATOR     = 

OBJECT_NAME    = STARLINK-36598
OBJECT_ID      = 2026-033Z
CENTER_NAME    = EARTH
REF_FRAME      = TEME
TIME_SYSTEM    = UTC
MEAN_ELEMENT_THEORY = SGP/SGP4

EPOCH          = 2026-03-01T20:23:00.186144
MEAN_MOTION    = 15.82093866
ECCENTRICITY   = .0002437
INCLINATION    = 42.9982
RA_OF_ASC_NODE = 319.3383
ARG_OF_PERICENTER = 253.0336
MEAN_ANOMALY   = 107.0269

EPHEMERIS_TYPE = 0
CLASSIFICATION_TYPE = U
NORAD_CAT_ID   = 67844
ELEMENT_SET_NO = 999
REV_AT_EPOCH   = 338
BSTAR          = .12563E-2
MEAN_MOTION_DOT = .273526E-2
MEAN_MOTION_DDOT = 0

CCSDS_OMM_VERS = 2.0
CREATION_DATE  = 
ORIGINATOR     = 

OBJECT_NAME    = STARLINK-36606
OBJECT_ID      = 2026-033AA
CENTER_NAME    = EARTH
REF_FRAME      = TEME
TIME_SYSTEM    = UTC
MEAN_ELEMENT_THEORY = SGP/SGP4

EPOCH          = 2026-03-01T18:51:00.445248
MEAN_MOTION    = 15.82106045
ECCENTRICITY   = .0001622
INCLINATION    = 42.9976
RA_OF_ASC_NODE = 319.7193
ARG_OF_PERICENTER = 258.3715
MEAN_ANOMALY   = 101.6975

EPHEMERIS_TYPE = 0
CLASSIFICATION_TYPE = U
NORAD_CAT_ID   = 67845
ELEMENT_SET_NO = 999
REV_AT_EPOCH   = 337
BSTAR          = .11948E-2
MEAN_MOTION_DOT = .259847E-2
MEAN_MOTION_DDOT = 0

CCSDS_OMM_VERS = 2.0
CREATION_DATE  = 
ORIGINATOR     = 

OBJECT_NAME    = STARLINK-36658
OBJECT_ID      = 2026-033AB
CENTER_NAME    = EARTH
REF_FRAME      = TEME
TIME_SYSTEM    = UTC
MEAN_ELEMENT_THEORY = SGP/SGP4

EPOCH          = 2026-03-01T20:20:50.129088
MEAN_MOTION    = 15.82131938
ECCENTRICITY   = .0002268
INCLINATION    = 42.9981
RA_OF_ASC_NODE = 319.3263
ARG_OF_PERICENTER = 269.8176
MEAN_ANOMALY   = 90.2436

EPHEMERIS_TYPE = 0
CLASSIFICATION_TYPE = U
NORAD_CAT_ID   = 67846
ELEMENT_SET_NO = 999
REV_AT_EPOCH   = 338
BSTAR          = .12838E-2
MEAN_MOTION_DOT = .280255E-2
MEAN_MOTION_DDOT = 0

CCSDS_OMM_VERS = 2.0
CREATION_DATE  = 
ORIGINATOR     = 

OBJECT_NAME    = STARLINK-36618
OBJECT_ID      = 2026-033AC
CENTER_NAME    = EARTH
REF_FRAME      = TEME
TIME_SYSTEM    = UTC
MEAN_ELEMENT_THEORY = SGP/SGP4

EPOCH          = 2026-03-01T18:08:43.283328
MEAN_MOTION    = 16.00507621
ECCENTRICITY   = .0002652
INCLINATION    = 42.9877
RA_OF_ASC_NODE = 318.5575
ARG_OF_PERICENTER = 273.0708
MEAN_ANOMALY   = 86.9866

EPHEMERIS_TYPE = 0
CLASSIFICATION_TYPE = U
NORAD_CAT_ID   = 67847
ELEMENT_SET_NO = 999
REV_AT_EPOCH   = 338
BSTAR          = .12712E-3
MEAN_MOTION_DOT = .67239E-3
MEAN_MOTION_DDOT = .10408E-4

