STARLINK-36650          
1 67836U 26033R   26060.72903479  .00240472  00000+0  11129-2 0  9993
2 67836  42.9977 320.1616 0001820 279.1542  80.9123 15.82019973  3360
STARLINK-36649          
1 67837U 26033S   26060.72828479  .00411925  00000+0  18608-2 0  9992
2 67837  42.9975 320.1564 0001909 263.1380  96.9274 15.82089043  3361
STARLINK-36654          
1 67838U 26033T   26060.72753531  .00384587  00000+0  17462-2 0  9999
2 67838  42.9975 320.1498 0001894 270.3787  89.6868 15.82049944  3366
STARLINK-36652          
1 67839U 26033U   26060.85304759  .00312896  00000+0  14265-2 0  9990
2 67839  42.9981 319.3700 0001961 255.1152 104.9502 15.82149407  3385
STARLINK-36651          
1 67840U 26033V   26060.85229465  .00440661  00000+0  19725-2 0  9990
2 67840  42.9982 319.3626 0002560 235.8952 124.1677 15.82211103  3384
STARLINK-36656          
1 67841U 26033W   26060.85155137  .00401736  00000+0  18102-2 0  9993
2 67841  42.9980 319.3574 0002265 293.4139  66.6495 15.82170331  3389
STARLINK-36653          
1 67842U 26033X   26060.72453946  .00273894  00000+0  12605-2 0  9993
2 67842  42.9980 320.1254 0001812 283.1362  76.9307 15.82050821  3361
STARLINK-36589          
1 67843U 26033Y   26060.85005676  .00433554  00000+0  19548-2 0  9995
2 67843  42.9978 319.3466 0003315 300.8786  59.1759 15.82073628  3387
STARLINK-36598          
1 67844U 26033Z   26060.84930771  .00273526  00000+0  12563-2 0  9999
2 67844  42.9982 319.3383 0002437 253.0336 107.0269 15.82093866  3380
STARLINK-36606          
1 67845U 26033AA  26060.78542182  .00259847  00000+0  11948-2 0  9994
2 67845  42.9976 319.7193 0001622 258.3715 101.6975 15.82106045  3378
STARLINK-36658          
1 67846U 26033AB  26060.84780242  .00280255  00000+0  12838-2 0  9999
2 67846  42.9981 319.3263 0002268 269.8176  90.2436 15.82131938  3389
STARLINK-36618          
1 67847U 26033AC  26060.75605652  .00067239  10408-4  12712-3 0  9996
2 67847  42.9877 318.5575 0002652 273.0708  86.9866 16.00507621  3382
